IXPE                    
1 49954U 21121A   24154.58334491  .00003979  00000+0  26031-3 0  9993
2 49954   0.2296 141.5713 0008973  63.5031 195.2606 14.98059431135708
